start=new Date('2023-06-27T00:00:00.000Z').valueOf();
sats=[{"RCS_SIZE":"LARGE","COUNTRY_CODE":"US","EPHEMERIS_TYPE":"0","OBJECT_ID":"2021-041Z","INCLINATION":"53.0527","GP_ID":"234558733","MEAN_MOTION_DDOT":"0.0000000000000","MEAN_ELEMENT_THEORY":"SGP4","TIME_SYSTEM":"UTC","SEMIMAJOR_AXIS":"6925.369","APOAPSIS":"547.909","ECCENTRICITY":"0.00009740","SITE":"AFETR","PERIAPSIS":"546.560","MEAN_MOTION_DOT":"-0.00003980","REV_AT_EPOCH":"11715","TLE_LINE1":"1 48576U 21041Z   23177.07963818 -.00003980  00000-0 -24853-3 0  9997","OBJECT_TYPE":"PAYLOAD","CENTER_NAME":"EARTH","LAUNCH_DATE":"2021-05-15","NORAD_CAT_ID":"48576","MEAN_ANOMALY":"273.4213","DECAY_DATE":null,"ELEMENT_SET_NO":"999","ARG_OF_PERICENTER":"86.6887","OBJECT_NAME":"STARLINK-2228","PERIOD":"95.593","MEAN_MOTION":"15.06393312","CLASSIFICATION_TYPE":"U","FILE":"3943034","TLE_LINE2":"2 48576  53.0527 220.1699 0000974  86.6887 273.4213 15.06393312117156","RA_OF_ASC_NODE":"220.1699","EPOCH":"2023-06-26T01:54:40.738752","BSTAR":"-0.00024853000000","REF_FRAME":"TEME"},{"MEAN_ANOMALY":"277.1276","NORAD_CAT_ID":"48577","DECAY_DATE":null,"ELEMENT_SET_NO":"999","ARG_OF_PERICENTER":"82.9837","OBJECT_NAME":"STARLINK-2231","PERIOD":"95.593","MEAN_MOTION":"15.06388372","CLASSIFICATION_TYPE":"U","RA_OF_ASC_NODE":"243.6510","TLE_LINE2":"2 48577  53.0525 243.6510 0001091  82.9837 277.1276 15.06388372116847","FILE":"3943319","EPOCH":"2023-06-26T10:02:19.816224","BSTAR":"-0.00008430600000","REF_FRAME":"TEME","RCS_SIZE":"LARGE","COUNTRY_CODE":"US","EPHEMERIS_TYPE":"0","OBJECT_ID":"2021-041AA","INCLINATION":"53.0525","GP_ID":"234565779","MEAN_MOTION_DDOT":"0.0000000000000","MEAN_ELEMENT_THEORY":"SGP4","TIME_SYSTEM":"UTC","SEMIMAJOR_AXIS":"6925.384","ECCENTRICITY":"0.00010910","APOAPSIS":"548.005","SITE":"AFETR","PERIAPSIS":"546.494","MEAN_MOTION_DOT":"-0.00001536","REV_AT_EPOCH":"11684","TLE_LINE1":"1 48577U 21041AA  23177.41828491 -.00001536  00000-0 -84306-4 0  9998","OBJECT_TYPE":"PAYLOAD","LAUNCH_DATE":"2021-05-15","CENTER_NAME":"EARTH"},{"REF_FRAME":"TEME","EPOCH":"2023-06-26T09:09:21.563712","BSTAR":"-0.00016243000000","CLASSIFICATION_TYPE":"U","RA_OF_ASC_NODE":"244.3283","TLE_LINE2":"2 48578  53.0526 244.3283 0001143  85.0301 275.0818 15.06379933116833","FILE":"3943319","MEAN_MOTION":"15.06379933","PERIOD":"95.593","ELEMENT_SET_NO":"999","ARG_OF_PERICENTER":"85.0301","OBJECT_NAME":"STARLINK-2232","MEAN_ANOMALY":"275.0818","NORAD_CAT_ID":"48578","DECAY_DATE":null,"OBJECT_TYPE":"PAYLOAD","TLE_LINE1":"1 48578U 21041AB  23177.38149958 -.00002698  00000-0 -16243-3 0  9993","REV_AT_EPOCH":"11683","LAUNCH_DATE":"2021-05-15","CENTER_NAME":"EARTH","SITE":"AFETR","MEAN_MOTION_DOT":"-0.00002698","PERIAPSIS":"546.483","TIME_SYSTEM":"UTC","SEMIMAJOR_AXIS":"6925.410","ECCENTRICITY":"0.00011430","APOAPSIS":"548.067","GP_ID":"234566164","MEAN_ELEMENT_THEORY":"SGP4","MEAN_MOTION_DDOT":"0.0000000000000","OBJECT_ID":"2021-041AB","INCLINATION":"53.0526","EPHEMERIS_TYPE":"0","COUNTRY_CODE":"US","RCS_SIZE":"LARGE"},{"REF_FRAME":"TEME","EPOCH":"2023-06-26T09:46:24.767904","BSTAR":"0.00069609000000","CLASSIFICATION_TYPE":"U","TLE_LINE2":"2 48579  53.0532 243.7011 0001033  98.4495 261.6611 15.06377775116848","FILE":"3943319","RA_OF_ASC_NODE":"243.7011","PERIOD":"95.594","MEAN_MOTION":"15.06377775","ARG_OF_PERICENTER":"98.4495","ELEMENT_SET_NO":"999","OBJECT_NAME":"STARLINK-2233","NORAD_CAT_ID":"48579","MEAN_ANOMALY":"261.6611","DECAY_DATE":null,"REV_AT_EPOCH":"11684","TLE_LINE1":"1 48579U 21041AC  23177.40723111  .00010096  00000-0  69609-3 0  9999","OBJECT_TYPE":"PAYLOAD","CENTER_NAME":"EARTH","LAUNCH_DATE":"2021-05-15","SITE":"AFETR","PERIAPSIS":"546.566","MEAN_MOTION_DOT":"0.00010096","TIME_SYSTEM":"UTC","SEMIMAJOR_AXIS":"6925.417","APOAPSIS":"547.997","ECCENTRICITY":"0.00010330","GP_ID":"234565783","MEAN_ELEMENT_THEORY":"SGP4","MEAN_MOTION_DDOT":"0.0000000000000","OBJECT_ID":"2021-041AC","INCLINATION":"53.0532","EPHEMERIS_TYPE":"0","RCS_SIZE":"LARGE","COUNTRY_CODE":"US"},{"ELEMENT_SET_NO":"999","ARG_OF_PERICENTER":"86.3535","OBJECT_NAME":"STARLINK-2234","MEAN_ANOMALY":"273.7594","NORAD_CAT_ID":"48580","DECAY_DATE":null,"MEAN_MOTION":"15.06396065","PERIOD":"95.592","EPOCH":"2023-06-26T08:57:56.930112","BSTAR":"0.00005071000000","CLASSIFICATION_TYPE":"U","FILE":"3943319","TLE_LINE2":"2 48580  53.0526 218.8537 0001230  86.3535 273.7594 15.06396065117195","RA_OF_ASC_NODE":"218.8537","REF_FRAME":"TEME","EPHEMERIS_TYPE":"0","COUNTRY_CODE":"US","RCS_SIZE":"LARGE","GP_ID":"234565280","MEAN_ELEMENT_THEORY":"SGP4","MEAN_MOTION_DDOT":"0.0000000000000","OBJECT_ID":"2021-041AD","INCLINATION":"53.0526","SITE":"AFETR","MEAN_MOTION_DOT":"0.00000474","PERIAPSIS":"546.374","SEMIMAJOR_AXIS":"6925.361","TIME_SYSTEM":"UTC","ECCENTRICITY":"0.00012300","APOAPSIS":"548.077","OBJECT_TYPE":"PAYLOAD","TLE_LINE1":"1 48580U 21041AD  23177.37357558  .00000474  00000-0  50710-4 0  9998","REV_AT_EPOCH":"11719","CENTER_NAME":"EARTH","LAUNCH_DATE":"2021-05-15"},{"RCS_SIZE":"LARGE","COUNTRY_CODE":"US","EPHEMERIS_TYPE":"0","INCLINATION":"53.0527","OBJECT_ID":"2021-041AE","MEAN_MOTION_DDOT":"0.0000000000000","MEAN_ELEMENT_THEORY":"SGP4","GP_ID":"234566166","APOAPSIS":"547.810","ECCENTRICITY":"0.00008290","TIME_SYSTEM":"UTC","SEMIMAJOR_AXIS":"6925.370","PERIAPSIS":"546.661","MEAN_MOTION_DOT":"0.00000685","SITE":"AFETR","CENTER_NAME":"EARTH","LAUNCH_DATE":"2021-05-15","TLE_LINE1":"1 48581U 21041AE  23177.40124228  .00000685  00000-0  64895-4 0  9992","REV_AT_EPOCH":"11734","OBJECT_TYPE":"PAYLOAD","DECAY_DATE":null,"NORAD_CAT_ID":"48581","MEAN_ANOMALY":"274.2965","OBJECT_NAME":"STARLINK-2235","ELEMENT_SET_NO":"999","ARG_OF_PERICENTER":"85.8119","PERIOD":"95.593","MEAN_MOTION":"15.06392863","TLE_LINE2":"2 48581  53.0527 208.7399 0000829  85.8119 274.2965 15.06392863117343","FILE":"3943319","RA_OF_ASC_NODE":"208.7399","CLASSIFICATION_TYPE":"U","BSTAR":"0.00006489500000","EPOCH":"2023-06-26T09:37:47.332992","REF_FRAME":"TEME"},{"REF_FRAME":"TEME","BSTAR":"0.00012485000000","EPOCH":"2023-06-26T02:49:06.950784","TLE_LINE2":"2 48582  53.0524 210.1638 0001251  84.6343 275.4789 15.06397928117287","FILE":"3943039","RA_OF_ASC_NODE":"210.1638","CLASSIFICATION_TYPE":"U","MEAN_MOTION":"15.06397928","PERIOD":"95.592","OBJECT_NAME":"STARLINK-2236","ARG_OF_PERICENTER":"84.6343","ELEMENT_SET_NO":"999","DECAY_DATE":null,"MEAN_ANOMALY":"275.4789","NORAD_CAT_ID":"48582","CENTER_NAME":"EARTH","LAUNCH_DATE":"2021-05-15","OBJECT_TYPE":"PAYLOAD","TLE_LINE1":"1 48582U 21041AF  23177.11744156  .00001579  00000-0  12485-3 0  9999","REV_AT_EPOCH":"11728","MEAN_MOTION_DOT":"0.00001579","PERIAPSIS":"546.354","SITE":"AFETR","APOAPSIS":"548.086","ECCENTRICITY":"0.00012510","TIME_SYSTEM":"UTC","SEMIMAJOR_AXIS":"6925.355","MEAN_MOTION_DDOT":"0.0000000000000","MEAN_ELEMENT_THEORY":"SGP4","GP_ID":"234558816","INCLINATION":"53.0524","OBJECT_ID":"2021-041AF","EPHEMERIS_TYPE":"0","COUNTRY_CODE":"US","RCS_SIZE":"LARGE"},{"CENTER_NAME":"EARTH","LAUNCH_DATE":"2021-05-15","OBJECT_TYPE":"PAYLOAD","TLE_LINE1":"1 48583U 21041AG  23177.38788220  .00010980  00000-0  75530-3 0  9995","REV_AT_EPOCH":"11670","MEAN_MOTION_DOT":"0.00010980","PERIAPSIS":"546.524","SITE":"AFETR","ECCENTRICITY":"0.00010940","APOAPSIS":"548.040","TIME_SYSTEM":"UTC","SEMIMAJOR_AXIS":"6925.417","MEAN_MOTION_DDOT":"0.0000000000000","MEAN_ELEMENT_THEORY":"SGP4","GP_ID":"234562348","INCLINATION":"53.0528","OBJECT_ID":"2021-041AG","EPHEMERIS_TYPE":"0","COUNTRY_CODE":"US","RCS_SIZE":"LARGE","REF_FRAME":"TEME","BSTAR":"0.00075530000000","EPOCH":"2023-06-26T09:18:33.022080","TLE_LINE2":"2 48583  53.0528 253.7904 0001094 103.8038 256.3073 15.06377649116709","RA_OF_ASC_NODE":"253.7904","FILE":"3943167","CLASSIFICATION_TYPE":"U","MEAN_MOTION":"15.06377649","PERIOD":"95.594","OBJECT_NAME":"STARLINK-2237","ELEMENT_SET_NO":"999","ARG_OF_PERICENTER":"103.8038","DECAY_DATE":null,"NORAD_CAT_ID":"48583","MEAN_ANOMALY":"256.3073"},{"MEAN_MOTION_DDOT":"0.0000000000000","MEAN_ELEMENT_THEORY":"SGP4","GP_ID":"234567094","INCLINATION":"53.0528","OBJECT_ID":"2021-041AH","EPHEMERIS_TYPE":"0","RCS_SIZE":"LARGE","COUNTRY_CODE":"US","LAUNCH_DATE":"2021-05-15","CENTER_NAME":"EARTH","REV_AT_EPOCH":"11665","TLE_LINE1":"1 48584U 21041AH  23177.42842508  .00016816  00000-0  11458-2 0  9993","OBJECT_TYPE":"PAYLOAD","PERIAPSIS":"546.549","MEAN_MOTION_DOT":"0.00016816","SITE":"AFETR","ECCENTRICITY":"0.00010540","APOAPSIS":"548.009","TIME_SYSTEM":"UTC","SEMIMAJOR_AXIS":"6925.414","PERIOD":"95.593","MEAN_MOTION":"15.06378733","OBJECT_NAME":"STARLINK-2238","ARG_OF_PERICENTER":"110.9967","ELEMENT_SET_NO":"999","DECAY_DATE":null,"MEAN_ANOMALY":"249.1135","NORAD_CAT_ID":"48584","REF_FRAME":"TEME","BSTAR":"0.00114580000000","EPOCH":"2023-06-26T10:16:55.926912","FILE":"3943355","TLE_LINE2":"2 48584  53.0528 253.6053 0001054 110.9967 249.1135 15.06378733116658","RA_OF_ASC_NODE":"253.6053","CLASSIFICATION_TYPE":"U"},{"PERIOD":"95.594","MEAN_MOTION":"15.06374082","DECAY_DATE":null,"MEAN_ANOMALY":"264.4574","NORAD_CAT_ID":"48585","OBJECT_NAME":"STARLINK-2240","ARG_OF_PERICENTER":"95.6538","ELEMENT_SET_NO":"999","REF_FRAME":"TEME","TLE_LINE2":"2 48585  53.0538 253.2584 0001076  95.6538 264.4574 15.06374082116663","FILE":"3943656","RA_OF_ASC_NODE":"253.2584","CLASSIFICATION_TYPE":"U","BSTAR":"0.00146170000000","EPOCH":"2023-06-26T12:08:24.319392","INCLINATION":"53.0538","OBJECT_ID":"2021-041AJ","MEAN_ELEMENT_THEORY":"SGP4","MEAN_MOTION_DDOT":"0.0000000000000","GP_ID":"234573887","RCS_SIZE":"LARGE","COUNTRY_CODE":"US","EPHEMERIS_TYPE":"0","LAUNCH_DATE":"2021-05-15","CENTER_NAME":"EARTH","TLE_LINE1":"1 48585U 21041AJ  23177.50583703  .00021542  00000-0  14617-2 0  9994","REV_AT_EPOCH":"11666","OBJECT_TYPE":"PAYLOAD","APOAPSIS":"548.038","ECCENTRICITY":"0.00010760","SEMIMAJOR_AXIS":"6925.428","TIME_SYSTEM":"UTC","PERIAPSIS":"546.548","MEAN_MOTION_DOT":"0.00021542","SITE":"AFETR"}];
